{"type": "FeatureCollection", "features": [{"type": "Feature", "properties": {"name": "Fleuve", "risk_type": "inondation"}, "geometry": {"type": "Polygon", "coordinates": [[[-15.5, 14.5], [-14.5, 14.5], [-14.5, 15.5], [-15.5, 15.5], [-15.5, 14.5]]]}}, {"type": "Feature", "properties": {"name": "Saloum", "risk_type": "inondation"}, "geometry": {"type": "Polygon", "coordinates": [[[-15.0, 13.5], [-14.0, 13.5], [-14.0, 14.5], [-15.0, 14.5], [-15.0, 13.5]]]}}, {"type": "Feature", "properties": {"name": "Casamance", "risk_type": "erosion"}, "geometry": {"type": "Polygon", "coordinates": [[[-15.5, 12.5], [-14.0, 12.5], [-14.0, 13.5], [-15.5, 13.5], [-15.5, 12.5]]]}}, {"type": "Feature", "properties": {"name": "Sahel", "risk_type": "secheresse"}, "geometry": {"type": "Polygon", "coordinates": [[[-14.0, 14.5], [-12.0, 14.5], [-12.0, 15.5], [-14.0, 15.5], [-14.0, 14.5]]]}}, {"type": "Feature", "properties": {"name": "Côte", "risk_type": "erosion"}, "geometry": {"type": "Polygon", "coordinates": [[[-17.5, 14.0], [-15.5, 14.0], [-15.5, 15.0], [-17.5, 15.0], [-17.5, 14.0]]]}}, {"type": "Feature", "properties": {"name": "Plateau", "risk_type": "secheresse"}, "geometry": {"type": "Polygon", "coordinates": [[[-13.0, 13.0], [-11.0, 13.0], [-11.0, 14.0], [-13.0, 14.0], [-13.0, 13.0]]}]}]}